NORAD_CAT_ID,OBJECT_NAME,OBJECT_TYPE,EPOCH,MEAN_MOTION,ECCENTRICITY,INCLINATION,RA_OF_ASC_NODE,ARG_OF_PERICENTER,MEAN_ANOMALY,BSTAR,MEAN_MOTION_DOT,MEAN_MOTION_DDOT,TLE_LINE0,TLE_LINE1,TLE_LINE2,SEMIMAJOR_AXIS,PERIOD,APOGEE,PERIGEE,DECAYED
53143.0,STARLINK-4102,PAYLOAD,2022-12-01 11:10:21,15.08842959,0.0002565,53.2184,135.2016,54.2946,305.8284,3.7791e-05,3.13e-06,0.0,0 STARLINK-4102,1 53143U 22083M   22335.46552134  .00000313  00000-0  37791-4 0  9994,2 53143  53.2184 135.2016 0002565  54.2946 305.8284 15.08842959 20932,6917.871,95.437,541.511,537.962,0.0
53143.0,STARLINK-4102,PAYLOAD,2022-12-01 17:31:53,15.08846401,0.0002558,53.2182,134.0123,54.5717,305.5514,5.953800000000001e-05,6.59e-06,0.0,0 STARLINK-4102,1 53143U 22083M   22335.73047802  .00000659  00000-0  59538-4 0  9991,2 53143  53.2182 134.0123 0002558  54.5717 305.5514 15.08846401 21601,6917.861,95.437,541.495,537.956,0.0
53143.0,STARLINK-4102,PAYLOAD,2022-12-02 11:01:07,15.08839931,0.0002279,53.2174,130.7403,55.4927,304.628,0.00013052,1.7899999999999998e-05,0.0,0 STARLINK-4102,1 53143U 22083M   22336.45911937  .00001790  00000-0  13052-3 0  9997,2 53143  53.2174 130.7403 0002279  55.4927 304.6280 15.08839931 21711,6917.880999999999,95.438,541.322,538.169,0.0
53143.0,STARLINK-4102,PAYLOAD,2022-12-02 17:22:40,15.08840588,0.0002277,53.2176,129.5507,59.4625,300.6592,0.00011404,1.527e-05,0.0,0 STARLINK-4102,1 53143U 22083M   22336.72407933  .00001527  00000-0  11404-3 0  9990,2 53143  53.2176 129.5507 0002277  59.4625 300.6592 15.08840588 21128,6917.879,95.438,541.319,538.168,0.0
53143.0,STARLINK-4102,PAYLOAD,2022-12-03 10:51:55,15.08839849,0.0002434,53.2192,126.2813,56.386,303.7364,1.3203e-05,-7.8e-07,0.0,0 STARLINK-4102,1 53143U 22083M   22337.45272363 -.00000078  00000-0  13203-4 0  9999,2 53143  53.2192 126.2813 0002434  56.3860 303.7364 15.08839849 21862,6917.880999999999,95.438,541.43,538.062,0.0
53143.0,STARLINK-4102,PAYLOAD,2022-12-03 17:13:28,15.08832842,0.0002473,53.2189,125.0912,54.6214,305.5009,-5.6829e-05,-1.193e-05,0.0,0 STARLINK-4102,1 53143U 22083M   22337.71769040 -.00001193  00000-0 -56829-4 0  9992,2 53143  53.2189 125.0912 0002473  54.6214 305.5009 15.08832842 21909,6917.901999999999,95.438,541.4780000000002,538.056,0.0
53143.0,STARLINK-4102,PAYLOAD,2022-12-04 09:07:20,15.08830391,0.0002411,53.2194,122.1178,53.7094,306.4120000000001,-8.644900000000001e-06,-4.26e-06,0.0,0 STARLINK-4102,1 53143U 22083M   22338.38009315 -.00000426  00000-0 -86449-5 0  9998,2 53143  53.2194 122.1178 0002411  53.7094 306.4120 15.08830391 21377,6917.91,95.438,541.443,538.107,0.0
53143.0,STARLINK-4102,PAYLOAD,2022-12-04 17:04:15,15.08836033,0.0002422,53.2192,120.6313,53.5542,306.5673,4.0491e-05,3.56e-06,0.0,0 STARLINK-4102,1 53143U 22083M   22338.71128974  .00000356  00000-0  40491-4 0  9994,2 53143  53.2192 120.6313 0002422  53.5542 306.5673 15.08836033 21426,6917.893,95.438,541.433,538.082,0.0
53143.0,STARLINK-4102,PAYLOAD,2022-12-05 02:36:33,15.08839737,0.0002455,53.2194,118.8472,53.8679,306.254,0.00012893,1.764e-05,0.0,0 STARLINK-4102,1 53143U 22083M   22339.10872543  .00001764  00000-0  12893-3 0  9994,2 53143  53.2194 118.8472 0002455  53.8679 306.2540 15.08839737 22114,6917.880999999999,95.438,541.445,538.048,0.0
53143.0,STARLINK-4102,PAYLOAD,2022-12-05 10:33:29,15.08845276,0.0002446,53.2192,117.3604,54.0252,306.0966,0.00017065,2.429e-05,0.0,0 STARLINK-4102,1 53143U 22083M   22339.43992127  .00002429  00000-0  17065-3 0  9996,2 53143  53.2192 117.3604 0002446  54.0252 306.0966 15.08845276 21533,6917.864000000001,95.437,541.4209999999998,538.0369999999998,0.0
53143.0,STARLINK-4102,PAYLOAD,2022-12-05 15:19:38,15.08844004,0.0002454,53.2195,116.4685,54.5712,305.5509,0.00022398,3.279e-05,0.0,0 STARLINK-4102,1 53143U 22083M   22339.63864098  .00003279  00000-0  22398-3 0  9992,2 53143  53.2195 116.4685 0002454  54.5712 305.5509 15.08844004 21568,6917.868,95.437,541.431,538.036,0.0
53143.0,STARLINK-4102,PAYLOAD,2022-12-06 11:59:39,15.08840541,0.000236,53.2192,112.6032,54.7032,305.4181,0.00011106,1.4800000000000002e-05,0.0,0 STARLINK-4102,1 53143U 22083M   22340.49976732  .00001480  00000-0  11106-3 0  9994,2 53143  53.2192 112.6032 0002360  54.7032 305.4181 15.08840541 21693,6917.879,95.438,541.376,538.111,0.0
53143.0,STARLINK-4102,PAYLOAD,2022-12-06 18:21:12,15.08839631,0.0002381,53.2189,111.4134,52.8848,307.2361,5.5483e-05,5.95e-06,0.0,0 STARLINK-4102,1 53143U 22083M   22340.76472859  .00000595  00000-0  55483-4 0  9998,2 53143  53.2189 111.4134 0002381  52.8848 307.2361 15.08839631 22369,6917.882,95.438,541.394,538.099,0.0
53143.0,STARLINK-4102,PAYLOAD,2022-12-07 15:01:14,15.08830299,0.000224,53.2205,107.5485,48.255,311.8634,-0.00011928,-2.186e-05,0.0,0 STARLINK-4102,1 53143U 22083M   22341.62585962 -.00002186  00000-0 -11928-3 0  9999,2 53143  53.2205 107.5485 0002240  48.2550 311.8634 15.08830299 22495,6917.91,95.438,541.325,538.225,0.0
53143.0,STARLINK-4102,PAYLOAD,2022-12-07 18:12:00,15.08834697,0.0002291,53.2184,106.9536,48.8315,311.2874,-0.00011732,-2.155e-05,0.0,0 STARLINK-4102,1 53143U 22083M   22341.75833751 -.00002155  00000-0 -11732-3 0  9994,2 53143  53.2184 106.9536 0002291  48.8315 311.2874 15.08834697 21880,6917.897,95.438,541.346,538.177,0.0
53143.0,STARLINK-4102,PAYLOAD,2022-12-08 02:08:55,15.08835733,0.0002376,53.2201,105.467,54.6051,305.5163,4.4218e-06,-2.18e-06,0.0,0 STARLINK-4102,1 53143U 22083M   22342.08953540 -.00000218  00000-0  44218-5 0  9994,2 53143  53.2201 105.4670 0002376  54.6051 305.5163 15.08835733 22564,6917.893,95.438,541.4019999999998,538.115,0.0
53143.0,STARLINK-4102,PAYLOAD,2022-12-08 14:52:01,15.08832925,0.0002039,53.2208,103.0905,32.3463,327.7654,2.8954e-05,1.73e-06,0.0,0 STARLINK-4102,1 53143U 22083M   22342.61945620  .00000173  00000-0  28954-4 0  9990,2 53143  53.2208 103.0905 0002039  32.3463 327.7654 15.08832925 22013,6917.901999999999,95.438,541.178,538.356,0.0
53143.0,STARLINK-4102,PAYLOAD,2022-12-08 19:38:09,15.08848541,0.0002414,53.2191,102.1961,53.3779,306.7435,0.00017793,2.545e-05,0.0,0 STARLINK-4102,1 53143U 22083M   22342.81816255  .00002545  00000-0  17793-3 0  9996,2 53143  53.2191 102.1961 0002414  53.3779 306.7435 15.08848541 22673,6917.854,95.437,541.389,538.049,0.0
53143.0,STARLINK-4102,PAYLOAD,2022-12-09 17:53:33,15.08834676,0.0002684,53.2209,98.0368,44.0546,316.0659,0.00019583,2.829e-05,0.0,0 STARLINK-4102,1 53143U 22083M   22343.74553201  .00002829  00000-0  19583-3 0  9992,2 53143  53.2209  98.0368 0002684  44.0546 316.0659 15.08834676 22817,6917.897,95.438,541.618,537.905,0.0
53143.0,STARLINK-4102,PAYLOAD,2022-12-10 11:22:49,15.08829913,0.0002389,53.2204,94.7665,37.9325,322.1835,1.7013e-07,-2.86e-06,0.0,0 STARLINK-4102,1 53143U 22083M   22344.47418339 -.00000286  00000-0  17013-6 0  9990,2 53143  53.2204  94.7665 0002389  37.9325 322.1835 15.08829913 22927,6917.911,95.438,541.429,538.124,0.0
53143.0,STARLINK-4102,PAYLOAD,2022-12-10 12:58:12,15.08831442,0.0002329,53.2203,94.4684,41.5929,318.524,6.1414e-06,-1.91e-06,0.0,0 STARLINK-4102,1 53143U 22083M   22344.54042278 -.00000191  00000-0  61414-5 0  9991,2 53143  53.2203  94.4684 0002329  41.5929 318.5240 15.08831442 22300,6917.906999999997,95.438,541.383,538.16,0.0
53143.0,STARLINK-4102,PAYLOAD,2022-12-11 11:13:36,15.08828647,0.0002078,53.2191,90.3011,50.1496,309.9679,0.00025514,3.774e-05,0.0,0 STARLINK-4102,1 53143U 22083M   22345.46777950  .00003774  00000-0  25514-3 0  9993,2 53143  53.2191  90.3011 0002078  50.1496 309.9679 15.08828647 23079,6917.915,95.438,541.2180000000002,538.3430000000002,0.0
53143.0,STARLINK-4102,PAYLOAD,2022-12-11 12:48:59,15.08832705,0.0002123,53.2186,90.00399999999998,49.8441,310.2736,0.00030543,4.575e-05,0.0,0 STARLINK-4102,1 53143U 22083M   22345.53402133  .00004575  00000-0  30543-3 0  9997,2 53143  53.2186  90.0040 0002123  49.8441 310.2736 15.08832705 22458,6917.903,95.438,541.236,538.299,0.0
53143.0,STARLINK-4102,PAYLOAD,2022-12-12 07:53:36,15.08850247,0.000219,53.2203,86.4369,56.3738,303.7463,0.00034622,5.228e-05,0.0,0 STARLINK-4102,1 53143U 22083M   22346.32889482  .00005228  00000-0  34622-3 0  9999,2 53143  53.2203  86.4369 0002190  56.3738 303.7463 15.08850247 23206,6917.849,95.437,541.229,538.1990000000002,0.0
53143.0,STARLINK-4102,PAYLOAD,2022-12-12 12:39:45,15.08850966,0.0002122,53.2198,85.5453,42.5581,317.5575,0.00025967,3.848e-05,0.0,0 STARLINK-4102,1 53143U 22083M   22346.52761368  .00003848  00000-0  25967-3 0  9991,2 53143  53.2198  85.5453 0002122  42.5581 317.5575 15.08850966 22609,6917.847,95.437,541.18,538.244,0.0
53143.0,STARLINK-4102,PAYLOAD,2022-12-12 23:47:27,15.0884511,0.0002149,53.2191,83.4638,38.01300000000001,322.1013,3.5629e-05,2.79e-06,0.0,0 STARLINK-4102,1 53143U 22083M   22346.99129376  .00000279  00000-0  35629-4 0  9991,2 53143  53.2191  83.4638 0002149  38.0130 322.1013 15.08845110 23305,6917.865,95.437,541.216,538.243,0.0
53143.0,STARLINK-4102,PAYLOAD,2022-12-13 09:19:46,15.08843168,0.0002249,53.2195,81.6797,40.0272,320.0885,4.4378e-05,4.18e-06,0.0,0 STARLINK-4102,1 53143U 22083M   22347.38873580  .00000418  00000-0  44378-4 0  9994,2 53143  53.2195  81.6797 0002249  40.0272 320.0885 15.08843168 22737,6917.871,95.437,541.2919999999998,538.18,0.0
53143.0,STARLINK-4102,PAYLOAD,2022-12-13 15:41:19,15.08846413,0.0002325,53.2204,80.4914,44.5227,315.5952,0.00010962,1.457e-05,0.0,0 STARLINK-4102,1 53143U 22083M   22347.65369415  .00001457  00000-0  10962-3 0  9996,2 53143  53.2204  80.4914 0002325  44.5227 315.5952 15.08846413 22774,6917.861,95.437,541.3340000000002,538.117,0.0
53143.0,STARLINK-4102,PAYLOAD,2022-12-14 12:21:19,15.08843984,0.0002134,53.2186,76.6245,39.0689,321.0457,1.4603e-05,-5.6e-07,0.0,0 STARLINK-4102,1 53143U 22083M   22348.51481205 -.00000056  00000-0  14603-4 0  9996,2 53143  53.2186  76.6245 0002134  39.0689 321.0457 15.08843984 22903,6917.868,95.437,541.2090000000002,538.257,0.0
